NORAD_CAT_ID,OBJECT_NAME,OBJECT_TYPE,EPOCH,MEAN_MOTION,ECCENTRICITY,INCLINATION,RA_OF_ASC_NODE,ARG_OF_PERICENTER,MEAN_ANOMALY,BSTAR,MEAN_MOTION_DOT,MEAN_MOTION_DDOT,TLE_LINE0,TLE_LINE1,TLE_LINE2,SEMIMAJOR_AXIS,PERIOD,APOGEE,PERIGEE,DECAYED
53868.0,STARLINK-4789,PAYLOAD,2024-03-24 15:02:42,15.08841576,0.0001197,53.2155,234.0669,111.4319,248.6801,5.7965e-05,6.35e-06,0.0,0 STARLINK-4789,1 53868U 22114BC  24084.62688248  .00000635  00000-0  57965-4 0  9992,2 53868  53.2155 234.0669 0001197 111.4319 248.6801 15.08841576 85446,6917.876,95.437,540.569,538.913,0.0
53868.0,STARLINK-4789,PAYLOAD,2024-03-24 19:48:51,15.08849625,0.0001129,53.2148,233.1722,118.4804,241.6302,0.00019426,2.806e-05,0.0,0 STARLINK-4789,1 53868U 22114BC  24084.82559984  .00002806  00000-0  19426-3 0  9999,2 53868  53.2148 233.1722 0001129 118.4804 241.6302 15.08849625 85474,6917.851,95.437,540.497,538.935,0.0
53868.0,STARLINK-4789,PAYLOAD,2024-03-25 16:28:52,15.08854701,0.0001125,53.2148,229.3077,73.3236,286.788,0.0004202,6.409e-05,0.0,0 STARLINK-4789,1 53868U 22114BC  24085.68671715  .00006409  00000-0  42020-3 0  9990,2 53868  53.2148 229.3077 0001125  73.3236 286.7880 15.08854701 85065,6917.835,95.437,540.479,538.922,0.0
53868.0,STARLINK-4789,PAYLOAD,2024-03-26 13:08:54,15.08819079,0.0001575,53.2167,225.4463,108.5862,251.5301,-0.00038105,-6.344e-05,0.0,0 STARLINK-4789,1 53868U 22114BC  24086.54784868 -.00006344  00000-0 -38105-3 0  9999,2 53868  53.2167 225.4463 0001575 108.5862 251.5301 15.08819079 85198,6917.944,95.439,540.899,538.72,0.0
53868.0,STARLINK-4789,PAYLOAD,2024-03-26 14:44:17,15.08818813,0.000154,53.2167,225.149,111.176,248.9396,-0.00019699,-3.42e-05,0.0,0 STARLINK-4789,1 53868U 22114BC  24086.61409286 -.00003420  00000-0 -19699-3 0  9994,2 53868  53.2167 225.1490 0001540 111.1760 248.9396 15.08818813 85744,6917.945,95.439,540.876,538.745,0.0
53868.0,STARLINK-4789,PAYLOAD,2024-03-26 17:55:03,15.08822012,0.0001333,53.2167,224.5547,101.5934,258.5208,-0.00013878,-2.495e-05,0.0,0 STARLINK-4789,1 53868U 22114BC  24086.74657284 -.00002495  00000-0 -13878-3 0  9995,2 53868  53.2167 224.5547 0001333 101.5934 258.5208 15.08822012 85763,6917.935,95.439,540.723,538.878,0.0
53868.0,STARLINK-4789,PAYLOAD,2024-03-27 01:51:58,15.0884847,0.0001068,53.2156,223.0654,79.216,280.8952,8.4241e-05,1.053e-05,0.0,0 STARLINK-4789,1 53868U 22114BC  24087.07775765  .00001053  00000-0  84241-4 0  9997,2 53868  53.2156 223.0654 0001068  79.2160 280.8952 15.08848470 85277,6917.854,95.437,540.458,538.981,0.0
53868.0,STARLINK-4789,PAYLOAD,2024-03-27 12:59:37,15.08897564,0.0001346,53.2165,220.9872,92.0063,268.1083,0.00076303,0.00011896,0.0,0 STARLINK-4789,1 53868U 22114BC  24087.54140472  .00011896  00000-0  76303-3 0  9995,2 53868  53.2165 220.9872 0001346  92.0063 268.1083 15.08897564 85349,6917.704,95.434,540.501,538.638,0.0
53868.0,STARLINK-4789,PAYLOAD,2024-03-27 14:35:01,15.08859891,0.0001379,53.2167,220.6925,97.6236,262.4912,0.00019449,2.81e-05,0.0,0 STARLINK-4789,1 53868U 22114BC  24087.60766172  .00002810  00000-0  19449-3 0  9997,2 53868  53.2167 220.6925 0001379  97.6236 262.4912 15.08859891 85895,6917.82,95.436,540.639,538.731,0.0
53868.0,STARLINK-4789,PAYLOAD,2024-03-27 19:21:12,15.08834676,0.0001134,53.2165,219.7992,97.8861,262.226,-0.00022145,-3.81e-05,0.0,0 STARLINK-4789,1 53868U 22114BC  24087.80639060 -.00003810  00000-0 -22145-3 0  9994,2 53868  53.2165 219.7992 0001134  97.8861 262.2260 15.08834676 85383,6917.897,95.438,540.546,538.977,0.0
53868.0,STARLINK-4789,PAYLOAD,2024-03-28 01:42:46,15.08821915,0.0001533,53.217,218.6084,81.3415,278.7751,-8.7793e-05,-1.684e-05,0.0,0 STARLINK-4789,1 53868U 22114BC  24088.07136998 -.00001684  00000-0 -87793-4 0  9994,2 53868  53.2170 218.6084 0001533  81.3415 278.7751 15.08821915 85429,6917.936,95.439,540.861,538.74,0.0
53868.0,STARLINK-4789,PAYLOAD,2024-03-28 12:50:29,15.08804663,0.0001853,53.2171,216.5273,89.1671,270.9534,3.7011e-05,3e-06,0.0,0 STARLINK-4789,1 53868U 22114BC  24088.53506444  .00000300  00000-0  37011-4 0  9992,2 53868  53.2171 216.5273 0001853  89.1671 270.9534 15.08804663 85493,6917.988,95.44,541.135,538.571,0.0
53868.0,STARLINK-4789,PAYLOAD,2024-03-28 17:36:39,15.08803334,0.0001795,53.2166,215.6341,89.4998,270.6199,2.686e-05,1.39e-06,0.0,0 STARLINK-4789,1 53868U 22114BC  24088.73378868  .00000139  00000-0  26860-4 0  9991,2 53868  53.2166 215.6341 0001795  89.4998 270.6199 15.08803334 86065,6917.992,95.44,541.099,538.616,0.0
53868.0,STARLINK-4789,PAYLOAD,2024-03-29 12:41:14,15.088551,0.0001478,53.2156,212.066,86.8048,273.3114,-0.00025078,-4.279e-05,0.0,0 STARLINK-4789,1 53868U 22114BC  24089.52864141 -.00004279  00000-0 -25078-3 0  9993,2 53868  53.2156 212.0660 0001478  86.8048 273.3114 15.08855100 85642,6917.834,95.437,540.722,538.677,0.0
53868.0,STARLINK-4789,PAYLOAD,2024-03-29 14:16:37,15.0884394,0.0001319,53.2143,211.7693,87.8847,272.2296,-0.00020611,-3.567e-05,0.0,0 STARLINK-4789,1 53868U 22114BC  24089.59488150 -.00003567  00000-0 -20611-3 0  9999,2 53868  53.2143 211.7693 0001319  87.8847 272.2296 15.08843940 86191,6917.868,95.437,540.646,538.821,0.0
53868.0,STARLINK-4789,PAYLOAD,2024-03-29 17:27:23,15.08848498,0.0001357,53.2139,211.1742,91.7834,268.3314,-6.7471e-05,-1.362e-05,0.0,0 STARLINK-4789,1 53868U 22114BC  24089.72736021 -.00001362  00000-0 -67471-4 0  9994,2 53868  53.2139 211.1742 0001357  91.7834 268.3314 15.08848498 86210,6917.854,95.437,540.658,538.781,0.0
53868.0,STARLINK-4789,PAYLOAD,2024-03-30 01:24:20,15.08844518,0.0001393,53.2144,209.6878,87.6675,272.4477,0.00064807,0.00010042,0.0,0 STARLINK-4789,1 53868U 22114BC  24090.05857081  .00010042  00000-0  64807-3 0  9994,2 53868  53.2144 209.6878 0001393  87.6675 272.4477 15.08844518 85725,6917.867,95.437,540.695,538.768,0.0
53868.0,STARLINK-4789,PAYLOAD,2024-03-30 14:07:26,15.08833048,0.0001457,53.2129,207.3084,91.9279,268.188,0.00034126,5.146e-05,0.0,0 STARLINK-4789,1 53868U 22114BC  24090.58850043  .00005146  00000-0  34126-3 0  9993,2 53868  53.2129 207.3084 0001457  91.9279 268.1880 15.08833048 85806,6917.902,95.438,540.775,538.759,0.0
53868.0,STARLINK-4789,PAYLOAD,2024-03-31 01:15:08,15.08857874,0.0001421,53.215,205.2268,93.42,266.6955,0.00098963,0.00015505,0.0,0 STARLINK-4789,1 53868U 22114BC  24091.05217695  .00015505  00000-0  98963-3 0  9995,2 53868  53.2150 205.2268 0001421  93.4200 266.6955 15.08857874 85879,6917.826,95.436,540.674,538.708,0.0
53868.0,STARLINK-4789,PAYLOAD,2024-03-31 13:58:13,15.08853278,0.0001627,53.2172,202.8485,99.1761,260.9415,0.00074166,0.00011539,0.0,0 STARLINK-4789,1 53868U 22114BC  24091.58209670  .00011539  00000-0  74166-3 0  9999,2 53868  53.2172 202.8485 0001627  99.1761 260.9415 15.08853278 85951,6917.84,95.437,540.83,538.579,0.0
53868.0,STARLINK-4789,PAYLOAD,2024-04-01 13:49:00,15.08842337,0.0001284,53.215,198.3898,74.6955,285.4179,9.7149e-05,1.259e-05,0.0,0 STARLINK-4789,1 53868U 22114BC  24092.57569775  .00001259  00000-0  97149-4 0  9999,2 53868  53.2150 198.3898 0001284  74.6955 285.4179 15.08842337 86107,6917.873,95.437,540.627,538.85,0.0
53868.0,STARLINK-4789,PAYLOAD,2024-04-02 13:39:47,15.08836855,0.0001305,53.2154,193.926,81.6283,278.4857,9.6313e-06,-1.35e-06,0.0,0 STARLINK-4789,1 53868U 22114BC  24093.56930154 -.00000135  00000-0  96313-5 0  9998,2 53868  53.2154 193.9260 0001305  81.6283 278.4857 15.08836855 86250,6917.89,95.438,540.658,538.852,0.0
53868.0,STARLINK-4789,PAYLOAD,2024-04-03 13:30:34,15.08843026,0.0001295,53.2155,189.4653,68.045,292.068,0.00020311,2.946e-05,0.0,0 STARLINK-4789,1 53868U 22114BC  24094.56289967  .00002946  00000-0  20311-3 0  9992,2 53868  53.2155 189.4653 0001295  68.0450 292.0680 15.08843026 86940,6917.871,95.437,540.632,538.84,0.0
53868.0,STARLINK-4789,PAYLOAD,2024-04-03 16:41:20,15.0884352,0.0001304,53.2157,188.8712,69.0808,291.0323,0.00019696,2.848e-05,0.0,0 STARLINK-4789,1 53868U 22114BC  24094.69537952  .00002848  00000-0  19696-3 0  9991,2 53868  53.2157 188.8712 0001304  69.0808 291.0323 15.08843520 86425,6917.87,95.437,540.637,538.833,0.0
53868.0,STARLINK-4789,PAYLOAD,2024-04-04 13:21:21,15.08837692,0.0001299,53.2159,185.0067,78.2956,281.8182,7.4213e-05,8.93e-06,0.0,0 STARLINK-4789,1 53868U 22114BC  24095.55650314  .00000893  00000-0  74213-4 0  9990,2 53868  53.2159 185.0067 0001299  78.2956 281.8182 15.08837692 86555,6917.887,95.438,540.651,538.854,0.0
53868.0,STARLINK-4789,PAYLOAD,2024-04-05 05:15:12,15.08847535,0.0001342,53.2162,182.0334,83.7573,276.3572,0.00013647,1.885e-05,0.0,0 STARLINK-4789,1 53868U 22114BC  24096.21889666  .00001885  00000-0  13647-3 0  9993,2 53868  53.2162 182.0334 0001342  83.7573 276.3572 15.08847535 86658,6917.857,95.437,540.651,538.794,0.0
53868.0,STARLINK-4789,PAYLOAD,2024-04-05 14:47:31,15.08851502,0.0001359,53.216,180.2491,82.2741,277.8406,0.00018095,2.594e-05,0.0,0 STARLINK-4789,1 53868U 22114BC  24096.61633337  .00002594  00000-0  18095-3 0  9999,2 53868  53.2160 180.2491 0001359  82.2741 277.8406 15.08851502 87257,6917.845,95.437,540.65,538.77,0.0
53868.0,STARLINK-4789,PAYLOAD,2024-04-06 05:05:59,15.08843719,0.0001321,53.2165,177.5724,85.6276,274.4867,0.00010639,1.406e-05,0.0,0 STARLINK-4789,1 53868U 22114BC  24097.21249647  .00001406  00000-0  10639-3 0  9990,2 53868  53.2165 177.5724 0001321  85.6276 274.4867 15.08843719 86804,6917.869,95.437,540.648,538.82,0.0
53868.0,STARLINK-4789,PAYLOAD,2024-04-06 11:27:32,15.08840442,0.0001342,53.2161,176.384,84.9101,275.2044,6.0024e-05,6.68e-06,0.0,0 STARLINK-4789,1 53868U 22114BC  24097.47745913  .00000668  00000-0  60024-4 0  9998,2 53868  53.2161 176.3840 0001342  84.9101 275.2044 15.08840442 87388,6917.879,95.438,540.672,538.816,0.0
53868.0,STARLINK-4789,PAYLOAD,2024-04-06 22:35:14,15.08841538,0.0001447,53.2166,174.3021,85.6296,274.4861,3.5092e-05,2.71e-06,0.0,0 STARLINK-4789,1 53868U 22114BC  24097.94113904  .00000271  00000-0  35092-4 0  9996,2 53868  53.2166 174.3021 0001447  85.6296 274.4861 15.08841538 87454,6917.876,95.437,540.742,538.74,0.0
